GLOBALSTAR M024         
1 25883U 99043A   25347.99911722 -.00000110  00000+0 -15875-2 0  9993
2 25883  52.0045 334.9025 0001663  27.3992   8.6665 11.10166637134830
GLOBALSTAR M027         
1 25884U 99043B   25347.89155895 -.00000058  00000+0  22124-3 0  9990
2 25884  52.0232  58.2175 0020979 280.5729  79.2701 11.04372148161095
GLOBALSTAR M054         
1 25885U 99043C   25347.72278640 -.00000042  00000+0  75337-3 0  9994
2 25885  52.0101 155.7632 0005967 119.6371 253.5616 11.39224837139510
GLOBALSTAR M053         
1 25886U 99043D   25347.86505764 -.00000058  00000+0  30683-3 0  9992
2 25886  51.9971 112.4851 0003637  46.8895 125.3086 11.27668987139715
GLOBALSTAR M058         
1 25907U 99049A   25347.99611120 -.00000085  00000+0 -11753-4 0  9999
2 25907  51.9970 349.0344 0001727 259.9426 100.1214 11.93206672563007
GLOBALSTAR M050         
1 25908U 99049B   25348.00792197 -.00000130  00000+0 -46673-3 0  9996
2 25908  52.0011 343.2440 0009277  30.4443   3.7721 12.07461922169918
GLOBALSTAR M033         
1 25909U 99049C   25347.97709313 -.00000029  00000+0  60234-3 0  9995
2 25909  51.9883 202.7439 0013120 276.1271  83.8081 12.20294463557694
GLOBALSTAR M055         
1 25910U 99049D   25347.93027138 -.00000054  00000+0  34209-3 0  9992
2 25910  51.9993 204.8701 0007554 136.4324 223.7125 12.29437993190394
